name,url,address,latitude,longitude
らぁ麺や 嶋,https://ramendb.supleks.jp/s/126252.html,東京都 渋谷区 西新宿五丁目,35.6948318,139.6866706
らーめん はやし,https://ramendb.supleks.jp/s/177.html,東京都 渋谷区 渋谷,35.6603981,139.7051782
手打 親鶏中華そば 綾川,https://ramendb.supleks.jp/s/130015.html,東京都 渋谷区 恵比寿,35.6461371,139.7153917
Japanese Soba Noodles 蔦,https://ramendb.supleks.jp/s/121857.html,東京都 渋谷区 代々木上原,35.6698139,139.6806883
風雲児,https://ramendb.supleks.jp/s/12119.html,東京都 渋谷区 新宿,35.6619707,139.703795
麺恋処 いそじ,https://ramendb.supleks.jp/s/10883.html,東京都 渋谷区 代々木,35.6821697,139.69369
つけ麺 五ノ神製作所,https://ramendb.supleks.jp/s/31204.html,東京都 渋谷区 新宿三丁目,35.6911784,139.7032633
中華麺店 喜楽,https://ramendb.supleks.jp/s/41.html,東京都 渋谷区 神泉,35.656833,139.6927328
Tonari,https://ramendb.supleks.jp/s/94296.html,東京都 渋谷区 神泉,35.656833,139.6927328
らーめん穀雨,https://ramendb.supleks.jp/s/62837.html,東京都 渋谷区 渋谷,35.6603981,139.7051782
ラーメン 旦過,https://ramendb.supleks.jp/s/145718.html,東京都 渋谷区 国立競技場,35.6801659,139.7137789
おおぜき中華そば店,https://ramendb.supleks.jp/s/61624.html,東京都 渋谷区 恵比寿,35.6461371,139.7153917
人類みな麺類 東京本店,https://ramendb.supleks.jp/s/126662.html,東京都 渋谷区 恵比寿,35.6461371,139.7153917
背脂煮干中華そば 我武者羅 初台店,https://ramendb.supleks.jp/s/126372.html,東京都 渋谷区 初台,35.6782619,139.6853944
麺屋ぬかじ,https://ramendb.supleks.jp/s/79450.html,東京都 渋谷区 渋谷,35.6603981,139.7051782
味噌らーめん 柿田川ひばり 恵比寿本店,https://ramendb.supleks.jp/s/130202.html,東京都 渋谷区 恵比寿,35.6461371,139.7153917
味噌麺処 花道庵 北参道店,https://ramendb.supleks.jp/s/143482.html,東京都 渋谷区 北参道,35.6783688,139.7055537
らぁめん冠尾 恵比寿西店,https://ramendb.supleks.jp/s/95326.html,東京都 渋谷区 恵比寿,35.6461371,139.7153917
蒙古タンメン 中本 渋谷店,https://ramendb.supleks.jp/s/22333.html,東京都 渋谷区 渋谷,35.6603981,139.7051782
神泉のらぁめん屋 うさぎ,https://ramendb.supleks.jp/s/10638.html,東京都 渋谷区 神泉,35.656833,139.6927328
